OBJECT_NAME,OBJECT_ID,EPOCH,MEAN_MOTION,ECCENTRICITY,INCLINATION,RA_OF_ASC_NODE,ARG_OF_PERICENTER,MEAN_ANOMALY,EPHEMERIS_TYPE,CLASSIFICATION_TYPE,NORAD_CAT_ID,ELEMENT_SET_NO,REV_AT_EPOCH,BSTAR,MEAN_MOTION_DOT,MEAN_MOTION_DDOT
USA 167,2003-008A,2026-07-24T07:36:25.312896,1.00270616,.00034423,11.0327,43.0688,318.2890,292.9571,0,U,27691,999,714,0,.2E-7,0
USA 169 (MILSTAR-2 4),2003-012A,2026-07-23T20:32:59.003808,1.00272905,.00993555,12.4038,29.5369,10.6868,1.7749,0,U,27711,999,3332,0,-.2E-5,0
ASIASAT 4,2003-014A,2026-07-23T12:17:44.384928,1.00270602,.00027635,4.7935,75.2845,49.9408,147.9914,0,U,27718,999,4566,0,-.222E-5,0
HELLAS-SAT 2,2003-020A,2026-07-24T04:27:07.865280,1.00272668,.00042415,7.4436,67.4360,87.5636,203.6600,0,U,27811,999,4321,0,-.86E-6,0
THURAYA-2,2003-026A,2026-07-24T03:15:38.570112,1.00271854,.00022385,8.8949,31.7989,28.3685,334.6068,0,U,27825,999,8472,0,.124E-5,0
OPTUS C1,2003-028B,2026-07-23T20:15:38.827296,1.00274475,.00057643,6.9784,68.9600,49.3837,282.8277,0,U,27831,999,5342,0,-.153E-5,0
USA 170,2003-040A,2026-07-24T05:28:38.510400,1.00267986,.00016911,10.5762,47.5903,60.0201,300.7980,0,U,27875,999,3337,0,.123E-5,0
GALAXY 13 (HORIZONS-1),2003-044A,2026-07-24T07:31:25.670784,1.00269262,.00020861,1.5118,83.3778,35.5148,145.9956,0,U,27954,999,4694,0,.136E-5,0
YAMAL 202,2003-053A,2026-07-23T20:36:21.180672,1.00271670,.00032292,6.4328,70.4895,52.0648,291.6409,0,U,28089,999,8306,0,-.82E-6,0
UFO 11 (USA 174),2003-057A,2026-07-23T13:20:39.403104,1.00270682,.0002803,8.9612,33.6254,107.7338,75.6219,0,U,28117,999,8281,0,-.105E-5,0
USA 176 (DSP 22),2004-004A,2026-07-23T21:18:09.892800,1.00283905,.00022956,12.1070,25.7934,321.0967,224.6632,0,U,28158,999,3330,0,-.299E-5,0
ABS-4 (MOBISAT-1),2004-007A,2026-07-24T02:52:38.650656,1.00275639,.00045338,6.1314,71.5507,56.4617,278.0280,0,U,28184,999,5270,0,.37E-6,0
INTELSAT 10-02,2004-022A,2026-07-24T01:35:38.535936,1.00272480,.00002297,0.0605,253.0695,247.3872,184.2447,0,U,28358,999,8092,0,-.6E-7,0
ANIK F2,2004-027A,2026-07-24T07:44:39.623712,1.00272394,.00037604,3.3807,78.9481,37.5056,190.6270,0,U,28378,999,4163,0,-.48E-6,0
AMC-15,2004-041A,2026-07-24T07:47:13.882272,1.00272465,.00025599,0.0498,280.1741,203.1296,190.4974,0,U,28446,999,7967,0,-.83E-6,0
NSS-10,2005-003A,2026-07-24T01:59:38.631264,1.00271127,.0003292,6.5394,70.0001,44.6870,179.5799,0,U,28526,999,5352,0,-.253E-5,0
INMARSAT 4-F1,2005-009A,2026-07-24T06:56:21.098976,1.00274323,.00027965,5.2179,42.7932,77.8663,103.5508,0,U,28628,999,7804,0,.34E-6,0
DIRECTV 8,2005-019A,2026-07-24T07:41:48.861888,1.00271408,.00032391,0.0156,81.9859,44.0632,172.3919,0,U,28659,999,7744,0,.7E-7,0
GALAXY 28 (G-28),2005-022A,2026-07-24T05:57:50.791392,1.00271415,.0002306,3.3906,78.4707,44.0792,241.7812,0,U,28702,999,5234,0,-.198E-5,0
THAICOM 4,2005-028A,2026-07-24T06:39:39.284064,1.00272559,.00017776,0.3382,85.4818,11.1178,64.8243,0,U,28786,999,5262,0,-.357E-5,0
ANIK F1R,2005-036A,2026-07-24T07:50:28.360032,1.00272737,.00039808,4.4047,76.1165,26.5889,209.6562,0,U,28868,999,4682,0,-.74E-6,0
SYRACUSE 3A,2005-041B,2026-07-24T05:12:38.616768,1.00272406,.00025593,4.7329,75.3776,42.7004,308.6436,0,U,28885,999,7611,0,.129E-5,0
INMARSAT 4-F2,2005-044A,2026-07-24T06:46:31.125216,1.00273056,.00029744,5.1431,43.6890,62.9400,80.5015,0,U,28899,999,7589,0,-.259E-5,0
METEOSAT-9 (MSG-2),2005-049B,2026-07-24T03:07:38.851392,1.00277159,.00024865,9.4424,53.7968,1.9946,338.7144,0,U,28912,999,736,0,.121E-5,0
EUTELSAT 174A,2005-052A,2026-07-24T06:55:13.706976,1.00274188,.00061709,4.3096,76.0659,46.3085,97.4141,0,U,28924,999,5270,0,.1E-6,0
ECHOSTAR 10,2006-003A,2026-07-24T07:45:13.176288,1.00271859,.0001607,0.0543,281.6421,175.2267,211.2850,0,U,28935,999,7483,0,-.5E-6,0
SPAINSAT,2006-007A,2026-07-24T05:53:03.116544,1.00272267,.00049966,0.6561,85.9413,32.6650,241.4329,0,U,28945,999,7458,0,-.212E-5,0
JCSAT-5A,2006-010A,2026-07-24T06:43:16.435776,1.00270422,.00020069,1.2020,83.7945,33.5340,57.5268,0,U,29045,999,7414,0,-.324E-5,0
ASTRA 1KR,2006-012A,2026-07-24T05:28:38.510400,1.00270399,.00034003,0.5664,83.1689,27.6018,292.3282,0,U,29055,999,4606,0,.123E-5,0
GALAXY 16 (G-16),2006-023A,2026-07-24T07:53:42.529344,1.00272759,.00028684,0.0280,123.0489,1.5084,196.9145,0,U,29236,999,7334,0,-.122E-5,0
EUTELSAT 33F,2006-032A,2026-07-24T05:20:38.783904,1.00270305,.00035443,1.7544,81.8269,30.5987,302.7507,0,U,29270,999,4767,0,.159E-5,0
JCSAT-3A,2006-033A,2026-07-23T23:51:31.698432,1.00272104,.00023794,0.0170,321.6631,161.8248,304.1050,0,U,29272,999,4810,0,-.34E-5,0
