{"epoch":1784902576,"count":18312,"objects":[{"id":"27691","name":"USA 167","type":"PAYLOAD","l1":"1 27691U 03008A   26205.31695964  .00000002  00000-0  00000-0 0  9996","l2":"2 27691  11.0327  43.0688 0003442 318.2890 292.9571  1.00270616  7144"},{"id":"27711","name":"USA 169","type":"PAYLOAD","l1":"1 27711U 03012A   26204.85623847 -.00000200  00000-0  00000-0 0  9994","l2":"2 27711  12.4038  29.5369 0099355  10.6868   1.7749  1.00272905 33327"},{"id":"27718","name":"ASIASAT 4","type":"PAYLOAD","l1":"1 27718U 03014A   26204.51231927 -.00000222  00000-0  00000-0 0  9994","l2":"2 27718   4.7935  75.2845 0002763  49.9408 147.9914  1.00270602 45662"},{"id":"27811","name":"HELLAS-SAT 2","type":"PAYLOAD","l1":"1 27811U 03020A   26205.18550770 -.00000086  00000-0  00000-0 0  9997","l2":"2 27811   7.4436  67.4360 0004241  87.5636 203.6600  1.00272668 43216"},{"id":"27825","name":"THURAYA 2","type":"PAYLOAD","l1":"1 27825U 03026A   26205.13586308  .00000124  00000-0  00000-0 0  9991","l2":"2 27825   8.8949  31.7989 0002239  28.3685 334.6068  1.00271854 84728"},{"id":"27831","name":"OPTUS C1","type":"PAYLOAD","l1":"1 27831U 03028B   26204.84419939 -.00000153  00000-0  00000-0 0  9995","l2":"2 27831   6.9784  68.9600 0005764  49.3837 282.8277  1.00274475 53422"},{"id":"27875","name":"USA 170","type":"PAYLOAD","l1":"1 27875U 03040A   26205.22822350  .00000123  00000-0  00000-0 0  9991","l2":"2 27875  10.5762  47.5903 0001691  60.0201 300.7980  1.00267986 33378"},{"id":"27954","name":"HORIZONS 1 (GALAXY 13)","type":"PAYLOAD","l1":"1 27954U 03044A   26205.31349156  .00000136  00000-0  00000-0 0  9995","l2":"2 27954   1.5118  83.3778 0002086  35.5148 145.9956  1.00269262 46943"},{"id":"28089","name":"YAMAL 202","type":"PAYLOAD","l1":"1 28089U 03053A   26204.85857848 -.00000082  00000-0  00000-0 0  9996","l2":"2 28089   6.4328  70.4895 0003229  52.0648 291.6409  1.00271670 83068"},{"id":"28117","name":"UFO 11 (USA 174)","type":"PAYLOAD","l1":"1 28117U 03057A   26204.55601161 -.00000105  00000-0  00000+0 0  9999","l2":"2 28117   8.9612  33.6254 0002803 107.7338  75.6219  1.00270682 82817"},{"id":"28158","name":"USA 176","type":"PAYLOAD","l1":"1 28158U 04004A   26204.88761450 -.00000299  00000-0  00000-0 0  9996","l2":"2 28158  12.1070  25.7934 0002296 321.0967 224.6632  1.00283905 33306"},{"id":"28184","name":"ABS 4 (MBSAT)","type":"PAYLOAD","l1":"1 28184U 04007A   26205.11989179  .00000037  00000-0  00000-0 0  9994","l2":"2 28184   6.1314  71.5507 0004534  56.4617 278.0280  1.00275639 52704"},{"id":"28358","name":"INTELSAT 1002","type":"PAYLOAD","l1":"1 28358U 04022A   26205.06641824 -.00000006  00000-0  00000-0 0  9997","l2":"2 28358   0.0605 253.0695 0000230 247.3872 184.2447  1.00272480 80920"},{"id":"28378","name":"ANIK F2","type":"PAYLOAD","l1":"1 28378U 04027A   26205.32268083 -.00000048  00000-0  00000-0 0  9991","l2":"2 28378   3.3807  78.9481 0003760  37.5056 190.6270  1.00272394 41637"},{"id":"28446","name":"AMC-15","type":"PAYLOAD","l1":"1 28446U 04041A   26205.32446623 -.00000083  00000-0  00000-0 0  9990","l2":"2 28446   0.0498 280.1741 0002560 203.1296 190.4974  1.00272465 79676"},{"id":"28526","name":"NSS 10 (AMC-12)","type":"PAYLOAD","l1":"1 28526U 05003A   26205.08308601 -.00000253  00000-0  00000-0 0  9993","l2":"2 28526   6.5394  70.0001 0003292  44.6870 179.5799  1.00271127 53528"},{"id":"28628","name":"INMARSAT 4-F1","type":"PAYLOAD","l1":"1 28628U 05009A   26205.28913309  .00000034  00000-0  00000-0 0  9997","l2":"2 28628   5.2179  42.7932 0002796  77.8663 103.5508  1.00274323 78043"},{"id":"28659","name":"DIRECTV 8","type":"PAYLOAD","l1":"1 28659U 05019A   26205.32070442  .00000007  00000-0  00000-0 0  9999","l2":"2 28659   0.0156  81.9859 0003239  44.0632 172.3919  1.00271408 77447"},{"id":"28702","name":"GALAXY 28 (IA 8)","type":"PAYLOAD","l1":"1 28702U 05022A   26205.24850453 -.00000198  00000-0  00000-0 0  9993","l2":"2 28702   3.3906  78.4707 0002306  44.0792 241.7812  1.00271415 52342"},{"id":"28786","name":"IPSTAR 1","type":"PAYLOAD","l1":"1 28786U 05028A   26205.27753801 -.00000357  00000-0  00000-0 0  9990","l2":"2 28786   0.3382  85.4818 0001778  11.1178  64.8243  1.00272559 52628"},{"id":"28868","name":"ANIK F1-R","type":"PAYLOAD","l1":"1 28868U 05036A   26205.32671713 -.00000074  00000-0  00000-0 0  9993","l2":"2 28868   4.4047  76.1165 0003981  26.5889 209.6562  1.00272737 46827"},{"id":"28885","name":"SYRACUSE 3A","type":"PAYLOAD","l1":"1 28885U 05041B   26205.21711362  .00000129  00000-0  00000-0 0  9991","l2":"2 28885   4.7329  75.3776 0002559  42.7004 308.6436  1.00272406 76118"},{"id":"28899","name":"INMARSAT 4-F2","type":"PAYLOAD","l1":"1 28899U 05044A   26205.28230469 -.00000259  00000-0  00000-0 0  9995","l2":"2 28899   5.1431  43.6890 0002974  62.9400  80.5015  1.00273056 75897"},{"id":"28912","name":"METEOSAT 9 (MSG 2)","type":"PAYLOAD","l1":"1 28912U 05049B   26205.13031078  .00000121  00000-0  00000-0 0  9992","l2":"2 28912   9.4424  53.7968 0002487   1.9946 338.7144  1.00277159  7363"},{"id":"28924","name":"EUTE 172A (GE 23)","type":"PAYLOAD","l1":"1 28924U 05052A   26205.28835309  .00000010  00000-0  00000-0 0  9991","l2":"2 28924   4.3096  76.0659 0006171  46.3085  97.4141  1.00274188 52704"},{"id":"28935","name":"ECHOSTAR 10","type":"PAYLOAD","l1":"1 28935U 06003A   26205.32306917 -.00000050  00000-0  00000-0 0  9998","l2":"2 28935   0.0543 281.6421 0001607 175.2267 211.2850  1.00271859 74833"},{"id":"28945","name":"SPAINSAT","type":"PAYLOAD","l1":"1 28945U 06007A   26205.24517496 -.00000212  00000-0  00000-0 0  9990","l2":"2 28945   0.6561  85.9413 0004997  32.6650 241.4329  1.00272267 74585"},{"id":"29045","name":"JCSAT 9","type":"PAYLOAD","l1":"1 29045U 06010A   26205.28005134 -.00000324  00000-0  00000-0 0  9995","l2":"2 29045   1.2020  83.7945 0002007  33.5340  57.5268  1.00270422 74147"},{"id":"29055","name":"ASTRA 1KR","type":"PAYLOAD","l1":"1 29055U 06012A   26205.22822350  .00000123  00000-0  00000-0 0  9995","l2":"2 29055   0.5664  83.1689 0003400  27.6018 292.3282  1.00270399 46065"},{"id":"29236","name":"GALAXY 16","type":"PAYLOAD","l1":"1 29236U 06023A   26205.32896446 -.00000122  00000-0  00000-0 0  9996","l2":"2 29236   0.0280 123.0489 0002868   1.5084 196.9145  1.00272759 73348"},{"id":"29270","name":"EUTE HOT BIRD 13B (HB 8)","type":"PAYLOAD","l1":"1 29270U 06032A   26205.22267111  .00000159  00000-0  00000-0 0  9993","l2":"2 29270   1.7544  81.8269 0003544  30.5987 302.7507  1.00270305 47671"},{"id":"29272","name":"JCSAT 10","type":"PAYLOAD","l1":"1 29272U 06033A   26204.99411688 -.00000340  00000-0  00000-0 0  9992","l2":"2 29272   0.0170 321.6631 0002379 161.8248 304.1050  1.00272104 48108"}]}